{
  "type": "FeatureCollection",
  "features": [
    {
      "type": "Feature",
      "properties": {
        "norad_id": 32376,
        "name": "COSMO-SKYMED 2",
        "group": "resource",
        "lat": -39.9231203204073,
        "lon": -21.05478305361243,
        "alt_km": 629.8176811348558,
        "timestamp": "2025-12-10T05:46:13.453746+00:00",
        "meta_object_name": "COSMO-SKYMED 2",
        "meta_object_id": "2007-059A",
        "meta_epoch": "2025-12-09T19:03:29.453760",
        "meta_mean_motion": 14.82161028,
        "meta_eccentricity": 0.0001536,
        "meta_inclination": 97.8812,
        "meta_ra_of_asc_node": 165.1622,
        "meta_arg_of_pericenter": 85.6208,
        "meta_mean_anomaly": 274.5181,
        "meta_ephemeris_type": 0,
        "meta_classification_type": "U",
        "meta_norad_cat_id": 32376,
        "meta_element_set_no": 999,
        "meta_rev_at_epoch": 97394,
        "meta_bstar": 0.00013537,
        "meta_mean_motion_dot": 1.026e-05,
        "meta_mean_motion_ddot": 0,
        "tle_line1": "1 32376U 07059A   25343.79409090  .00001026  00000+0  13537-3 0  9997",
        "tle_line2": "2 32376  97.8812 165.1622 0001536  85.6208 274.5181 14.82161028973948"
      },
      "geometry": {
        "type": "Point",
        "coordinates": [
          -21.05478305361243,
          -39.9231203204073
        ]
      }
    },
    {
      "type": "Feature",
      "properties": {
        "norad_id": 32382,
        "name": "RADARSAT-2",
        "group": "resource",
        "lat": -78.36896508722896,
        "lon": 36.04280096402306,
        "alt_km": 799.9274019844042,
        "timestamp": "2025-12-10T05:46:13.453774+00:00",
        "meta_object_name": "RADARSAT-2",
        "meta_object_id": "2007-061A",
        "meta_epoch": "2025-12-09T23:26:12.483168",
        "meta_mean_motion": 14.29981197,
        "meta_eccentricity": 0.0001136,
        "meta_inclination": 98.5796,
        "meta_ra_of_asc_node": 348.6068,
        "meta_arg_of_pericenter": 94.4252,
        "meta_mean_anomaly": 265.706,
        "meta_ephemeris_type": 0,
        "meta_classification_type": "U",
        "meta_norad_cat_id": 32382,
        "meta_element_set_no": 999,
        "meta_rev_at_epoch": 93891,
        "meta_bstar": 6.0045e-05,
        "meta_mean_motion_dot": 1.11e-06,
        "meta_mean_motion_ddot": 0,
        "tle_line1": "1 32382U 07061A   25343.97653337  .00000111  00000+0  60045-4 0  9993",
        "tle_line2": "2 32382  98.5796 348.6068 0001136  94.4252 265.7060 14.29981197938913"
      },
      "geometry": {
        "type": "Point",
        "coordinates": [
          36.04280096402306,
          -78.36896508722896
        ]
      }
    },
    {
      "type": "Feature",
      "properties": {
        "norad_id": 32783,
        "name": "CARTOSAT-2A",
        "group": "resource",
        "lat": 28.632439414936325,
        "lon": 29.85378489782796,
        "alt_km": 623.2606399808437,
        "timestamp": "2025-12-10T05:46:13.453797+00:00",
        "meta_object_name": "CARTOSAT-2A",
        "meta_object_id": "2008-021A",
        "meta_epoch": "2025-12-09T19:53:51.467424",
        "meta_mean_motion": 14.78927255,
        "meta_eccentricity": 0.0012158,
        "meta_inclination": 97.7928,
        "meta_ra_of_asc_node": 33.7431,
        "meta_arg_of_pericenter": 13.6704,
        "meta_mean_anomaly": 346.4835,
        "meta_ephemeris_type": 0,
        "meta_classification_type": "U",
        "meta_norad_cat_id": 32783,
        "meta_element_set_no": 999,
        "meta_rev_at_epoch": 95081,
        "meta_bstar": 0.00014722,
        "meta_mean_motion_dot": 1.036e-05,
        "meta_mean_motion_ddot": 0,
        "tle_line1": "1 32783U 08021A   25343.82906791  .00001036  00000+0  14722-3 0  9991",
        "tle_line2": "2 32783  97.7928  33.7431 0012158  13.6704 346.4835 14.78927255950812"
      },
      "geometry": {
        "type": "Point",
        "coordinates": [
          29.85378489782796,
          28.632439414936325
        ]
      }
    },
    {
      "type": "Feature",
      "properties": {
        "norad_id": 33320,
        "name": "HUANJING 1A (HJ-1A)",
        "group": "resource",
        "lat": -34.164170105386326,
        "lon": 147.40634409571746,
        "alt_km": 639.0098320320276,
        "timestamp": "2025-12-10T05:46:13.453816+00:00",
        "meta_object_name": "HUANJING 1A (HJ-1A)",
        "meta_object_id": "2008-041A",
        "meta_epoch": "2025-12-09T20:42:46.854720",
        "meta_mean_motion": 14.8338019,
        "meta_eccentricity": 0.0020338,
        "meta_inclination": 97.6543,
        "meta_ra_of_asc_node": 332.2815,
        "meta_arg_of_pericenter": 43.5549,
        "meta_mean_anomaly": 316.7267,
        "meta_ephemeris_type": 0,
        "meta_classification_type": "U",
        "meta_norad_cat_id": 33320,
        "meta_element_set_no": 999,
        "meta_rev_at_epoch": 93033,
        "meta_bstar": 0.00036084,
        "meta_mean_motion_dot": 2.919e-05,
        "meta_mean_motion_ddot": 0,
        "tle_line1": "1 33320U 08041A   25343.86304230  .00002919  00000+0  36084-3 0  9991",
        "tle_line2": "2 33320  97.6543 332.2815 0020338  43.5549 316.7267 14.83380190930334"
      },
      "geometry": {
        "type": "Point",
        "coordinates": [
          147.40634409571746,
          -34.164170105386326
        ]
      }
    },
    {
      "type": "Feature",
      "properties": {
        "norad_id": 33321,
        "name": "HUANJING 1B (HJ-1B)",
        "group": "resource",
        "lat": 77.89753110040071,
        "lon": -62.408774683728446,
        "alt_km": 586.4248269651807,
        "timestamp": "2025-12-10T05:46:13.453828+00:00",
        "meta_object_name": "HUANJING 1B (HJ-1B)",
        "meta_object_id": "2008-041B",
        "meta_epoch": "2025-12-09T21:18:44.877888",
        "meta_mean_motion": 14.82810129,
        "meta_eccentricity": 0.0038267,
        "meta_inclination": 97.64,
        "meta_ra_of_asc_node": 336.0096,
        "meta_arg_of_pericenter": 84.6752,
        "meta_mean_anomaly": 275.8827,
        "meta_ephemeris_type": 0,
        "meta_classification_type": "U",
        "meta_norad_cat_id": 33321,
        "meta_element_set_no": 999,
        "meta_rev_at_epoch": 93035,
        "meta_bstar": 0.00025726,
        "meta_mean_motion_dot": 2.056e-05,
        "meta_mean_motion_ddot": 0,
        "tle_line1": "1 33321U 08041B   25343.88801942  .00002056  00000+0  25726-3 0  9999",
        "tle_line2": "2 33321  97.6400 336.0096 0038267  84.6752 275.8827 14.82810129930350"
      },
      "geometry": {
        "type": "Point",
        "coordinates": [
          -62.408774683728446,
          77.89753110040071
        ]
      }
    },
    {
      "type": "Feature",
      "properties": {
        "norad_id": 33331,
        "name": "GEOEYE 1",
        "group": "resource",
        "lat": -47.91892722746137,
        "lon": -133.55141584662027,
        "alt_km": 683.5450312788544,
        "timestamp": "2025-12-10T05:46:13.453843+00:00",
        "meta_object_name": "GEOEYE 1",
        "meta_object_id": "2008-042A",
        "meta_epoch": "2025-12-09T18:53:37.262112",
        "meta_mean_motion": 14.64807012,
        "meta_eccentricity": 0.000276,
        "meta_inclination": 98.1255,
        "meta_ra_of_asc_node": 55.1048,
        "meta_arg_of_pericenter": 289.7566,
        "meta_mean_anomaly": 70.3339,
        "meta_ephemeris_type": 0,
        "meta_classification_type": "U",
        "meta_norad_cat_id": 33331,
        "meta_element_set_no": 999,
        "meta_rev_at_epoch": 92242,
        "meta_bstar": 0.00022152,
        "meta_mean_motion_dot": 1.134e-05,
        "meta_mean_motion_ddot": 0,
        "tle_line1": "1 33331U 08042A   25343.78723683  .00001134  00000+0  22152-3 0  9991",
        "tle_line2": "2 33331  98.1255  55.1048 0002760 289.7566  70.3339 14.64807012922423"
      },
      "geometry": {
        "type": "Point",
        "coordinates": [
          -133.55141584662027,
          -47.91892722746137
        ]
      }
    },
    {
      "type": "Feature",
      "properties": {
        "norad_id": 33396,
        "name": "THEOS",
        "group": "resource",
        "lat": 52.11571613792941,
        "lon": -126.39883586689132,
        "alt_km": 819.4732198252732,
        "timestamp": "2025-12-10T05:46:13.453865+00:00",
        "meta_object_name": "THEOS",
        "meta_object_id": "2008-049A",
        "meta_epoch": "2025-12-09T20:43:10.944768",
        "meta_mean_motion": 14.20095727,
        "meta_eccentricity": 0.0001104,
        "meta_inclination": 98.5866,
        "meta_ra_of_asc_node": 42.0374,
        "meta_arg_of_pericenter": 95.1872,
        "meta_mean_anomaly": 264.943,
        "meta_ephemeris_type": 0,
        "meta_classification_type": "U",
        "meta_norad_cat_id": 33396,
        "meta_element_set_no": 999,
        "meta_rev_at_epoch": 89109,
        "meta_bstar": 0.00012728,
        "meta_mean_motion_dot": 2.29e-06,
        "meta_mean_motion_ddot": 0,
        "tle_line1": "1 33396U 08049A   25343.86332112  .00000229  00000+0  12728-3 0  9993",
        "tle_line2": "2 33396  98.5866  42.0374 0001104  95.1872 264.9430 14.20095727891098"
      },
      "geometry": {
        "type": "Point",
        "coordinates": [
          -126.39883586689132,
          52.11571613792941
        ]
      }
    }
  ]
}